      2.10          N: GNSS NAV DATA                        RINEX VERSION / TYPE
fic2rin                                 03/02/2023 00:17:52 PGM / RUN BY / DATE
                                                            END OF HEADER
7  23  3  1  1 59 44.0  .232079066336D-03 -.738964445191D-11  .000000000000D+00
     .200000000000D+01  .114375000000D+02  .475341228442D-08  .240347026641D+01
     .422820448875D-06  .168281794759D-01  .734627246857D-05  .515358437347D+04
     .266384000000D+06 -.167638063431D-07  .740626197803D+00 -.303611159325D-06
     .950536020795D+00  .231625000000D+03 -.222176564297D+01 -.782568311397D-08
     .371444043564D-10  .100000000000D+01  .225100000000D+04  .000000000000D+00
     .240000000000D+01  .000000000000D+00 -.111758708954D-07  .200000000000D+01
     .259200000000D+06  .400000000000D+01
25 23  3  1 13 59 44.0  .424147117883D-03  .306954461848D-11  .000000000000D+00
     .300000000000D+01  .289062500000D+02  .473698302864D-08  .150413519489D+01
     .135228037834D-05  .111810921226D-01  .832788646221D-05  .515376871681D+04
     .309584000000D+06 -.284984707832D-06  .177376269147D+01 -.633299350739D-07
     .953526239978D+00  .217093750000D+03  .103648265398D+01 -.810248035797D-08
    -.490734726785D-09  .100000000000D+01  .225100000000D+04  .000000000000D+00
     .240000000000D+01  .000000000000D+00  .558793544769D-08  .300000000000D+01
     .302400000000D+06  .400000000000D+01
1  23  3  1 14  0  0.0  .207275617868D-03 -.397903932026D-11  .000000000000D+00
     .300000000000D+02  .403125000000D+01  .373158400688D-08  .301184605854D+01
     .163912773132D-06  .124248166103D-01  .349432229996D-05  .515365219116D+04
     .309600000000D+06  .484287738800D-07 -.238796119013D+01 -.126659870148D-06
     .989591568164D+00  .327093750000D+03  .938020534263D+00 -.767817696975D-08
     .136791412197D-09  .100000000000D+01  .225100000000D+04  .000000000000D+00
     .240000000000D+01  .000000000000D+00  .465661287308D-08  .300000000000D+02
     .302400000000D+06  .400000000000D+01
2  23  3  1 14  0  0.0 -.617486424744D-03  .272848410532D-11  .000000000000D+00
     .890000000000D+02  .255937500000D+02  .420196074282D-08  .200988380787D+01
     .110454857349D-05  .199700744124D-01  .222958624363D-05  .515368680573D+04
     .309600000000D+06  .324100255966D-06 -.248501983014D+01 -.372529029846D-08
     .967280943934D+00  .335843750000D+03 -.132188145783D+01 -.788890003292D-08
     .550022910662D-10  .100000000000D+01  .225100000000D+04  .000000000000D+00
     .240000000000D+01  .000000000000D+00 -.176951289177D-07  .890000000000D+02
     .302400000000D+06  .400000000000D+01
5  23  3  1 14  0  0.0 -.117783434689D-03 -.147792889038D-11  .000000000000D+00
     .250000000000D+02 -.100343750000D+03  .436018161907D-08 -.684058312654D+00
    -.499933958054D-05  .578751461580D-02  .604614615440D-05  .515362481117D+04
     .309600000000D+06 -.372529029846D-07 -.140179817969D+01  .838190317154D-07
     .964487718373D+00  .264531250000D+03  .112914141426D+01 -.812569561070D-08
     .710743891050D-10  .100000000000D+01  .225100000000D+04  .000000000000D+00
     .240000000000D+01  .000000000000D+00 -.111758708954D-07  .250000000000D+02
     .302400000000D+06  .400000000000D+01
12 23  3  1 14  0  0.0 -.346228480339D-03 -.466116034659D-11  .000000000000D+00
     .210000000000D+02  .354687500000D+02  .436589614281D-08  .160867374674D+01
     .152736902237D-05  .894812180195D-02  .847317278385D-05  .515364996338D+04
     .309600000000D+06 -.119209289551D-06  .185509946644D+01 -.223517417908D-06
     .965902196309D+00  .217625000000D+03  .134239838357D+01 -.784639826255D-08
    -.467876631797D-09  .100000000000D+01  .225100000000D+04  .000000000000D+00
     .240000000000D+01  .000000000000D+00 -.125728547573D-07  .210000000000D+02
     .302400000000D+06  .400000000000D+01
7  23  3  1 14  0  0.0  .231758691370D-03 -.738964445191D-11  .000000000000D+00
     .700000000000D+02  .128437500000D+02  .493699135979D-08  .242388248379D+01
     .426545739174D-06  .168312691385D-01  .709854066372D-05  .515358412361D+04
     .309600000000D+06 -.353902578354D-07  .740276125895D+00 -.301748514175D-06
     .950534448158D+00  .237718750000D+03 -.222159024494D+01 -.786497046473D-08
     .303584074067D-10  .100000000000D+01  .225100000000D+04  .000000000000D+00
     .240000000000D+01  .000000000000D+00 -.111758708954D-07  .700000000000D+02
     .302400000000D+06  .400000000000D+01
6  23  3  1 14  0  0.0  .577487517148D-03  .363797880709D-11  .000000000000D+00
     .410000000000D+02  .128125000000D+01  .389694803781D-08 -.304450558909D+01
     .128522515297D-06  .292232097127D-02  .314973294735D-05  .515362169456D+04
     .309600000000D+06  .130385160446D-07 -.239626782624D+01  .204890966415D-07
     .988839499534D+00  .334625000000D+03 -.818820029335D+00 -.794890253227D-08
     .875036448780D-10  .100000000000D+01  .225100000000D+04  .000000000000D+00
     .240000000000D+01  .000000000000D+00  .372529029846D-08  .410000000000D+02
     .302400000000D+06  .400000000000D+01
8  23  3  1 14  0  0.0 -.110842287540D-03 -.181898940355D-11  .000000000000D+00
     .930000000000D+02  .620000000000D+02  .425410577201D-08 -.105129107442D+01
     .323541462421D-05  .836880470160D-02  .688806176186D-05  .515366720772D+04
     .309600000000D+06  .130385160446D-06  .280641053099D+01 -.154599547386D-06
     .960081733886D+00  .246718750000D+03  .225331685946D+00 -.795568852922D-08
    -.107861635727D-09  .100000000000D+01  .225100000000D+04  .000000000000D+00
     .240000000000D+01  .000000000000D+00  .512227416039D-08  .930000000000D+02
     .302400000000D+06  .400000000000D+01
4  23  3  1 14  0  0.0 -.168778933585D-04  .841282599140D-11  .000000000000D+00
     .214000000000D+03 -.312500000000D+02  .447340062081D-08 -.151151326130D+01
    -.182725489140D-05  .232025468722D-02  .911764800549D-05  .515370534134D+04
     .309600000000D+06  .111758708954D-07 -.275066917115D+00 -.111758708954D-07
     .962799588445D+00  .203781250000D+03 -.302544699371D+01 -.785354141724D-08
     .358229207399D-09  .100000000000D+01  .225100000000D+04  .000000000000D+00
     .240000000000D+01  .000000000000D+00 -.465661287308D-08  .726000000000D+03
     .302400000000D+06  .400000000000D+01
9  23  3  1 14  0  0.0 -.209078658372D-03  .727595761418D-11  .000000000000D+00
     .170000000000D+02 -.357500000000D+02  .465590822298D-08 -.710504471706D+00
    -.207684934139D-05  .245260680094D-02  .934302806854D-05  .515366401672D+04
     .309600000000D+06 -.372529029846D-07 -.331043315226D+00 -.149011611938D-07
     .956007041828D+00  .200343750000D+03  .196684217007D+01 -.797926093967D-08
     .334299639208D-09  .100000000000D+01  .225100000000D+04  .000000000000D+00
     .240000000000D+01  .000000000000D+00  .139698386192D-08  .170000000000D+02
     .302400000000D+06  .400000000000D+01
29 23  3  1 14  0  0.0 -.588694121689D-03 -.204636307899D-11  .000000000000D+00
     .150000000000D+02  .872500000000D+02  .389444793367D-08 -.996951702126D+00
     .440888106823D-05  .224057410378D-02  .716373324394D-05  .515357877350D+04
     .309600000000D+06 -.763684511185D-07  .290792117011D+01 -.186264514923D-08
     .977849279187D+00  .250375000000D+03  .239159204163D+01 -.780461080765D-08
    -.189293599124D-10  .100000000000D+01  .225100000000D+04  .000000000000D+00
     .240000000000D+01  .000000000000D+00 -.102445483208D-07  .150000000000D+02
     .302400000000D+06  .400000000000D+01
30 23  3  1 14  0  0.0 -.528584700078D-03  .136424205266D-11  .000000000000D+00
     .150000000000D+02  .158125000000D+02  .539879631011D-08  .226387980972D+01
     .808387994766D-06  .619063782506D-02  .700727105141D-05  .515362798882D+04
     .309600000000D+06 -.150874257088D-06  .747694798524D+00 -.298023223877D-07
     .935657889381D+00  .234875000000D+03 -.264309711092D+01 -.827070165078D-08
     .421446126351D-10  .100000000000D+01  .225100000000D+04  .000000000000D+00
     .240000000000D+01  .000000000000D+00  .372529029846D-08  .150000000000D+02
     .302400000000D+06  .400000000000D+01
31 23  3  1 14  0  0.0 -.210531055927D-03 -.909494701773D-12  .000000000000D+00
     .360000000000D+02  .124687500000D+02  .502342353147D-08  .180326744064D+01
     .748783349991D-06  .106260953471D-01  .712275505066D-05  .515416841888D+04
     .309600000000D+06 -.234693288803D-06  .759885916619D+00  .152736902237D-06
     .954626132010D+00  .243781250000D+03  .516707349861D+00 -.814319633967D-08
    -.150006248362D-10  .100000000000D+01  .225100000000D+04  .000000000000D+00
     .240000000000D+01  .000000000000D+00 -.135041773319D-07  .360000000000D+02
     .302400000000D+06  .400000000000D+01
32 23  3  1 14  0  0.0 -.410743523389D-03 -.112549969344D-10  .000000000000D+00
     .390000000000D+02 -.362500000000D+02  .459197698856D-08 -.376202003215D+00
    -.180862843990D-05  .667799997609D-02  .908225774765D-05  .515371509361D+04
     .309600000000D+06 -.186264514923D-07 -.318248079258D+00  .949949026108D-07
     .959679874679D+00  .206156250000D+03 -.224543713650D+01 -.796390315710D-08
     .283940398686D-09  .100000000000D+01  .225100000000D+04  .000000000000D+00
     .240000000000D+01  .000000000000D+00  .465661287308D-09  .390000000000D+02
     .302400000000D+06  .400000000000D+01
27 23  3  1 14  0  0.0  .909762457013D-04 -.886757334229D-11  .000000000000D+00
     .550000000000D+02  .678125000000D+02  .411588572888D-08 -.104155488355D+01
     .359863042831D-05  .114031468984D-01  .682659447193D-05  .515366659164D+04
     .309600000000D+06  .264495611191D-06  .282900741611D+01  .109896063805D-06
     .968955045941D+00  .251531250000D+03  .704561930232D+00 -.791997275580D-08
    -.140005831805D-09  .100000000000D+01  .225100000000D+04  .000000000000D+00
     .240000000000D+01  .000000000000D+00  .186264514923D-08  .550000000000D+02
     .302400000000D+06  .400000000000D+01
